CCSDS_OMM_VERS = 2.0
CREATION_DATE  = 
ORIGINATOR     = 

OBJECT_NAME    = SL-14 R/B
OBJECT_ID      = 1991-042B
CENTER_NAME    = EARTH
REF_FRAME      = TEME
TIME_SYSTEM    = UTC
MEAN_ELEMENT_THEORY = SGP/SGP4

EPOCH          = 2026-01-15T03:23:35.612160
MEAN_MOTION    = 14.81774003
ECCENTRICITY   = .0018413
INCLINATION    = 82.4929
RA_OF_ASC_NODE = 270.4055
ARG_OF_PERICENTER = 59.6017
MEAN_ANOMALY   = 300.7014

EPHEMERIS_TYPE = 0
CLASSIFICATION_TYPE = U
NORAD_CAT_ID   = 21423
ELEMENT_SET_NO = 999
REV_AT_EPOCH   = 84514
BSTAR          = .30874E-4
MEAN_MOTION_DOT = .268E-5
MEAN_MOTION_DDOT = 0

CCSDS_OMM_VERS = 2.0
CREATION_DATE  = 
ORIGINATOR     = 

OBJECT_NAME    = ERS-1
OBJECT_ID      = 1991-050A
CENTER_NAME    = EARTH
REF_FRAME      = TEME
TIME_SYSTEM    = UTC
MEAN_ELEMENT_THEORY = SGP/SGP4

EPOCH          = 2026-01-15T00:49:08.343840
MEAN_MOTION    = 14.39395721
ECCENTRICITY   = .0032009
INCLINATION    = 98.7898
RA_OF_ASC_NODE = 31.9211
ARG_OF_PERICENTER = 3.4369
MEAN_ANOMALY   = 356.7031

EPHEMERIS_TYPE = 0
CLASSIFICATION_TYPE = U
NORAD_CAT_ID   = 21574
ELEMENT_SET_NO = 999
REV_AT_EPOCH   = 80801
BSTAR          = .82816E-4
MEAN_MOTION_DOT = .213E-5
MEAN_MOTION_DDOT = 0

CCSDS_OMM_VERS = 2.0
CREATION_DATE  = 
ORIGINATOR     = 

OBJECT_NAME    = ARIANE 40 R/B
OBJECT_ID      = 1991-050F
CENTER_NAME    = EARTH
REF_FRAME      = TEME
TIME_SYSTEM    = UTC
MEAN_ELEMENT_THEORY = SGP/SGP4

EPOCH          = 2026-01-15T03:26:15.783936
MEAN_MOTION    = 14.42844107
ECCENTRICITY   = .0002335
INCLINATION    = 98.2117
RA_OF_ASC_NODE = 69.3608
ARG_OF_PERICENTER = 218.2986
MEAN_ANOMALY   = 141.8039

EPHEMERIS_TYPE = 0
CLASSIFICATION_TYPE = U
NORAD_CAT_ID   = 21610
ELEMENT_SET_NO = 999
REV_AT_EPOCH   = 81127
BSTAR          = .69611E-4
MEAN_MOTION_DOT = .19E-5
MEAN_MOTION_DDOT = 0

CCSDS_OMM_VERS = 2.0
CREATION_DATE  = 
ORIGINATOR     = 

OBJECT_NAME    = INTERCOSMOS 25
OBJECT_ID      = 1991-086A
CENTER_NAME    = EARTH
REF_FRAME      = TEME
TIME_SYSTEM    = UTC
MEAN_ELEMENT_THEORY = SGP/SGP4

EPOCH          = 2026-01-14T09:54:06.777216
MEAN_MOTION    = 12.11853461
ECCENTRICITY   = .14859881
INCLINATION    = 82.6086
RA_OF_ASC_NODE = 342.8120
ARG_OF_PERICENTER = 233.9200
MEAN_ANOMALY   = 111.5174

EPHEMERIS_TYPE = 0
CLASSIFICATION_TYPE = U
NORAD_CAT_ID   = 21819
ELEMENT_SET_NO = 999
REV_AT_EPOCH   = 49011
BSTAR          = .19470596E-3
MEAN_MOTION_DOT = .983E-5
MEAN_MOTION_DDOT = 0

CCSDS_OMM_VERS = 2.0
CREATION_DATE  = 
ORIGINATOR     = 

OBJECT_NAME    = SL-8 R/B
OBJECT_ID      = 1992-008B
CENTER_NAME    = EARTH
REF_FRAME      = TEME
TIME_SYSTEM    = UTC
MEAN_ELEMENT_THEORY = SGP/SGP4

EPOCH          = 2026-01-14T20:05:15.671616
MEAN_MOTION    = 13.75966192
ECCENTRICITY   = .0033411
INCLINATION    = 82.9289
RA_OF_ASC_NODE = 307.8318
ARG_OF_PERICENTER = 286.0780
MEAN_ANOMALY   = 127.7190

EPHEMERIS_TYPE = 0
CLASSIFICATION_TYPE = U
NORAD_CAT_ID   = 21876
ELEMENT_SET_NO = 999
REV_AT_EPOCH   = 70201
BSTAR          = .43826E-4
MEAN_MOTION_DOT = .57E-6
MEAN_MOTION_DDOT = 0

CCSDS_OMM_VERS = 2.0
CREATION_DATE  = 
ORIGINATOR     = 

OBJECT_NAME    = SL-8 R/B
OBJECT_ID      = 1992-020B
CENTER_NAME    = EARTH
REF_FRAME      = TEME
TIME_SYSTEM    = UTC
MEAN_ELEMENT_THEORY = SGP/SGP4

EPOCH          = 2026-01-14T22:44:19.399200
MEAN_MOTION    = 13.75537717
ECCENTRICITY   = .003026
INCLINATION    = 82.9295
RA_OF_ASC_NODE = 193.6568
ARG_OF_PERICENTER = 88.0833
MEAN_ANOMALY   = 21.0160

EPHEMERIS_TYPE = 0
CLASSIFICATION_TYPE = U
NORAD_CAT_ID   = 21938
ELEMENT_SET_NO = 999
REV_AT_EPOCH   = 69374
BSTAR          = .14096E-3
MEAN_MOTION_DOT = .152E-5
MEAN_MOTION_DDOT = 0

CCSDS_OMM_VERS = 2.0
CREATION_DATE  = 
ORIGINATOR     = 

OBJECT_NAME    = USA 81
OBJECT_ID      = 1992-023A
CENTER_NAME    = EARTH
REF_FRAME      = TEME
TIME_SYSTEM    = UTC
MEAN_ELEMENT_THEORY = SGP/SGP4

EPOCH          = 2026-01-14T22:30:25.270272
MEAN_MOTION    = 14.32342120
ECCENTRICITY   = .0001694
INCLINATION    = 85.0102
RA_OF_ASC_NODE = 162.4311
ARG_OF_PERICENTER = 117.7005
MEAN_ANOMALY   = 242.4360

EPHEMERIS_TYPE = 0
CLASSIFICATION_TYPE = U
NORAD_CAT_ID   = 21949
ELEMENT_SET_NO = 999
REV_AT_EPOCH   = 8709
BSTAR          = .46639E-4
MEAN_MOTION_DOT = .146E-5
MEAN_MOTION_DDOT = 0

CCSDS_OMM_VERS = 2.0
CREATION_DATE  = 
ORIGINATOR     = 

OBJECT_NAME    = COSMOS 2219
OBJECT_ID      = 1992-076A
CENTER_NAME    = EARTH
REF_FRAME      = TEME
TIME_SYSTEM    = UTC
MEAN_ELEMENT_THEORY = SGP/SGP4

EPOCH          = 2026-01-14T18:13:58.690848
MEAN_MOTION    = 14.14081333
ECCENTRICITY   = .0020674
INCLINATION    = 71.0619
RA_OF_ASC_NODE = 130.8093
ARG_OF_PERICENTER = 281.5903
MEAN_ANOMALY   = 78.2899

EPHEMERIS_TYPE = 0
CLASSIFICATION_TYPE = U
NORAD_CAT_ID   = 22219
ELEMENT_SET_NO = 999
REV_AT_EPOCH   = 71075
BSTAR          = -.32773E-5
MEAN_MOTION_DOT = -.53E-6
MEAN_MOTION_DDOT = 0

CCSDS_OMM_VERS = 2.0
CREATION_DATE  = 
ORIGINATOR     = 

OBJECT_NAME    = SL-16 R/B
OBJECT_ID      = 1992-076B
CENTER_NAME    = EARTH
REF_FRAME      = TEME
TIME_SYSTEM    = UTC
MEAN_ELEMENT_THEORY = SGP/SGP4

EPOCH          = 2026-01-15T04:47:00.249216
MEAN_MOTION    = 14.16849632
ECCENTRICITY   = .001294
INCLINATION    = 71.0015
RA_OF_ASC_NODE = 301.0505
ARG_OF_PERICENTER = 187.2139
MEAN_ANOMALY   = 323.2152

EPHEMERIS_TYPE = 0
CLASSIFICATION_TYPE = U
NORAD_CAT_ID   = 22220
ELEMENT_SET_NO = 999
REV_AT_EPOCH   = 71425
BSTAR          = .90949E-4
MEAN_MOTION_DOT = .135E-5
MEAN_MOTION_DDOT = 0

CCSDS_OMM_VERS = 2.0
CREATION_DATE  = 
ORIGINATOR     = 

OBJECT_NAME    = COSMOS 2221
OBJECT_ID      = 1992-080A
CENTER_NAME    = EARTH
REF_FRAME      = TEME
TIME_SYSTEM    = UTC
MEAN_ELEMENT_THEORY = SGP/SGP4

EPOCH          = 2026-01-14T22:19:34.732704
MEAN_MOTION    = 14.95925994
ECCENTRICITY   = .0015211
INCLINATION    = 82.5057
RA_OF_ASC_NODE = 330.5538
ARG_OF_PERICENTER = 20.0303
MEAN_ANOMALY   = 340.1513

EPHEMERIS_TYPE = 0
CLASSIFICATION_TYPE = U
NORAD_CAT_ID   = 22236
ELEMENT_SET_NO = 999
REV_AT_EPOCH   = 77275
BSTAR          = .13238E-3
MEAN_MOTION_DOT = .151E-4
MEAN_MOTION_DDOT = 0

CCSDS_OMM_VERS = 2.0
CREATION_DATE  = 
ORIGINATOR     = 

OBJECT_NAME    = SL-16 R/B
OBJECT_ID      = 1992-093B
CENTER_NAME    = EARTH
REF_FRAME      = TEME
TIME_SYSTEM    = UTC
MEAN_ELEMENT_THEORY = SGP/SGP4

EPOCH          = 2026-01-14T14:32:41.112960
MEAN_MOTION    = 14.15436611
ECCENTRICITY   = .0003675
INCLINATION    = 71.0221
RA_OF_ASC_NODE = 117.8047
ARG_OF_PERICENTER = 358.5682
MEAN_ANOMALY   = 1.5429

EPHEMERIS_TYPE = 0
CLASSIFICATION_TYPE = U
NORAD_CAT_ID   = 22285
ELEMENT_SET_NO = 999
REV_AT_EPOCH   = 70550
BSTAR          = .16307E-3
MEAN_MOTION_DOT = .271E-5
MEAN_MOTION_DDOT = 0

CCSDS_OMM_VERS = 2.0
CREATION_DATE  = 
ORIGINATOR     = 

OBJECT_NAME    = COSMOS 2228
OBJECT_ID      = 1992-094A
CENTER_NAME    = EARTH
REF_FRAME      = TEME
TIME_SYSTEM    = UTC
MEAN_ELEMENT_THEORY = SGP/SGP4

EPOCH          = 2026-01-15T04:22:27.128352
MEAN_MOTION    = 14.96909333
ECCENTRICITY   = .0019356
INCLINATION    = 82.5189
RA_OF_ASC_NODE = 288.5365
ARG_OF_PERICENTER = 118.8071
MEAN_ANOMALY   = 241.5098

EPHEMERIS_TYPE = 0
CLASSIFICATION_TYPE = U
NORAD_CAT_ID   = 22286
ELEMENT_SET_NO = 999
REV_AT_EPOCH   = 76805
BSTAR          = .11667E-3
MEAN_MOTION_DOT = .137E-4
MEAN_MOTION_DDOT = 0

